[{"OBJECT_NAME":"SITRO-AIS 24","OBJECT_ID":"2024-199G","EPOCH":"2026-03-09T22:55:13.311552","MEAN_MOTION":14.95574575,"ECCENTRICITY":0.00134035,"INCLINATION":97.3325,"RA_OF_ASC_NODE":273.3822,"ARG_OF_PERICENTER":42.6191,"MEAN_ANOMALY":317.6069,"EPHEMERIS_TYPE":0,"CLASSIFICATION_TYPE":"U","NORAD_CAT_ID":61741,"ELEMENT_SET_NO":999,"REV_AT_EPOCH":11705,"BSTAR":0.00037285708,"MEAN_MOTION_DOT":4.091e-5,"MEAN_MOTION_DDOT":0},{"OBJECT_NAME":"SKYKRAFT-4D","OBJECT_ID":"2025-154K","EPOCH":"2026-03-09T18:12:41.751648","MEAN_MOTION":14.94999025,"ECCENTRICITY":0.00041317,"INCLINATION":97.6775,"RA_OF_ASC_NODE":134.9839,"ARG_OF_PERICENTER":213.6612,"MEAN_ANOMALY":146.4347,"EPHEMERIS_TYPE":0,"CLASSIFICATION_TYPE":"U","NORAD_CAT_ID":64898,"ELEMENT_SET_NO":999,"REV_AT_EPOCH":3243,"BSTAR":0.00061950439,"MEAN_MOTION_DOT":6.721e-5,"MEAN_MOTION_DDOT":0}]
